{"type":"FeatureCollection","features":[{"type":"Feature","properties":{"name":"평양","region":"n","src":"통일부 북한정보포털","official":"평양직할시"},"geometry":{"type":"Point","coordinates":[125.91426,39.07329]}},{"type":"Feature","properties":{"name":"신의주","region":"n","src":"통일부 북한정보포털","official":"신의주시"},"geometry":{"type":"Point","coordinates":[124.44689,40.09062]}},{"type":"Feature","properties":{"name":"강계","region":"n","src":"통일부 북한정보포털","official":"강계시"},"geometry":{"type":"Point","coordinates":[126.5707,40.96477]}},{"type":"Feature","properties":{"name":"혜산","region":"n","src":"통일부 북한정보포털","official":"혜산시"},"geometry":{"type":"Point","coordinates":[128.23508,41.34974]}},{"type":"Feature","properties":{"name":"청진","region":"n","src":"통일부 북한정보포털","official":"청진시"},"geometry":{"type":"Point","coordinates":[129.49414,41.86755]}},{"type":"Feature","properties":{"name":"함흥","region":"n","src":"통일부 북한정보포털","official":"함흥시"},"geometry":{"type":"Point","coordinates":[127.58654,40.0307]}},{"type":"Feature","properties":{"name":"원산","region":"n","src":"통일부 북한정보포털","official":"원산시"},"geometry":{"type":"Point","coordinates":[127.34946,39.13423]}},{"type":"Feature","properties":{"name":"개성","region":"n","src":"통일부 북한정보포털","official":"개성특별시"},"geometry":{"type":"Point","coordinates":[126.60957,37.99853]}},{"type":"Feature","properties":{"name":"서울","region":"s"},"geometry":{"type":"Point","coordinates":[126.978,37.566]}},{"type":"Feature","properties":{"name":"인천","region":"s"},"geometry":{"type":"Point","coordinates":[126.705,37.456]}},{"type":"Feature","properties":{"name":"대전","region":"s"},"geometry":{"type":"Point","coordinates":[127.385,36.351]}},{"type":"Feature","properties":{"name":"대구","region":"s"},"geometry":{"type":"Point","coordinates":[128.601,35.872]}},{"type":"Feature","properties":{"name":"광주","region":"s"},"geometry":{"type":"Point","coordinates":[126.851,35.16]}},{"type":"Feature","properties":{"name":"부산","region":"s"},"geometry":{"type":"Point","coordinates":[129.075,35.18]}}]}