{"type":"FeatureCollection", "features": [
{"type":"Feature","geometry":{"type":"Polygon","coordinates":[[[49175,69426],[41359,63519],[42317,57792],[40841,50425],[32534,39561],[20972,33788],[5845,33826],[66,32612],[-4044,36102],[-20910,34654],[-28687,32883],[-36967,35425],[-56175,34283],[-62053,31955],[-73006,23966],[-66913,20281],[-62910,13552],[-54664,8372],[-53234,14928],[-49729,11849],[-44644,15449],[-44133,9397],[-38038,6477],[-30556,6821],[-29297,-1033],[-25962,-5634],[-15316,-13178],[-15779,-17678],[-23078,-23084],[-23402,-28109],[-21473,-35725],[-22972,-43840],[-16215,-45137],[-6803,-50255],[428,-51706],[2748,-54532],[-2726,-61237],[-2892,-66221],[-12308,-87473],[-17141,-96354],[-7756,-93805],[1687,-92522],[926,-97876],[7858,-98248],[10940,-95691],[10447,-90299],[16641,-86712],[21135,-94186],[34703,-88374],[46331,-91354],[41253,-97890],[44283,-99680],[52014,-97876],[55183,-103692],[62967,-102483],[67447,-105558],[75632,-108135],[85066,-110955],[85210,-103305],[89211,-100168],[96186,-103626],[112165,-107480],[116883,-105556],[122735,-107850],[115787,-112822],[115625,-119171],[120453,-123256],[122008,-127637],[126000,-129541],[132543,-129929],[133713,-133982],[131652,-139754],[133083,-148061],[132135,-150716],[138363,-152897],[145101,-152242],[148609,-143770],[149146,-134946],[146022,-125648],[143480,-106649],[144914,-101594],[140251,-95342],[135727,-78541],[131376,-73919],[129522,-68791],[122911,-57963],[119163,-54053],[115531,-43863],[112383,-42172],[111480,-34878],[98936,-21339],[78289,7580],[72869,16411],[66705,32337],[58872,47493],[55926,56317],[49175,69426]]]},"properties":{"region":"s","prov":"gangwonS"}},
{"type":"Feature","geometry":{"type":"Polygon","coordinates":[[[49175,69426],[48678,75451],[41951,83893],[35657,80828],[25267,93661],[18625,95241],[9417,107326],[4466,111119],[-2626,123080],[-11982,124452],[-16681,127852],[-23180,127214],[-26657,132635],[-30043,129436],[-35108,133427],[-36933,137730],[-34626,146958],[-36313,152272],[-31160,155988],[-47575,157040],[-57628,155966],[-59761,152802],[-61591,143259],[-65805,141400],[-66894,133931],[-64363,128014],[-67962,126085],[-70786,118950],[-67637,108742],[-69316,104077],[-72901,101064],[-78060,100431],[-80308,97964],[-81051,86665],[-87765,75463],[-95666,71921],[-97689,69129],[-94717,62449],[-95795,55867],[-88309,39892],[-81532,33011],[-81330,27022],[-75316,19674],[-73006,23966],[-62053,31955],[-56175,34283],[-36967,35425],[-28687,32883],[-20910,34654],[-4044,36102],[66,32612],[5845,33826],[20972,33788],[32534,39561],[40841,50425],[42317,57792],[41359,63519],[49175,69426]]]},"properties":{"region":"n","prov":"kangwonN"}},
{"type":"Feature","geometry":{"type":"MultiPolygon","coordinates":[[[[-73006,23966],[-75316,19674],[-77136,15300],[-83550,9529],[-91169,-1822],[-99667,-6313],[-99668,-18500],[-98032,-24533],[-105420,-26559],[-111786,-26457],[-109403,-42841],[-105665,-49332],[-106511,-61488],[-100495,-67165],[-95615,-68567],[-98541,-72197],[-94529,-76444],[-86633,-77701],[-89382,-85678],[-96655,-81354],[-101232,-82121],[-100241,-89754],[-97458,-96546],[-88553,-89913],[-87814,-94497],[-93049,-99260],[-92902,-105017],[-83713,-105944],[-81469,-109677],[-85632,-113184],[-74683,-121141],[-67020,-122064],[-59594,-118964],[-52332,-123644],[-48127,-124236],[-37360,-120312],[-29590,-109829],[-25111,-109322],[-17141,-96354],[-12308,-87473],[-2892,-66221],[-2726,-61237],[2748,-54532],[428,-51706],[-6803,-50255],[-16215,-45137],[-22972,-43840],[-21473,-35725],[-23402,-28109],[-23078,-23084],[-15779,-17678],[-15316,-13178],[-25962,-5634],[-29297,-1033],[-30556,6821],[-38038,6477],[-44133,9397],[-44644,15449],[-49729,11849],[-53234,14928],[-54664,8372],[-62910,13552],[-66913,20281],[-73006,23966]]],[[[-132470,-20849],[-135507,-19436],[-139113,-24199],[-130520,-25342],[-132470,-20849]]],[[[-127244,-32844],[-132122,-28636],[-133823,-32280],[-127912,-37025],[-127244,-32844]]],[[[-114070,-43942],[-112153,-40857],[-112630,-26839],[-114167,-23905],[-120985,-18587],[-125950,-22852],[-126106,-30206],[-122027,-37728],[-122683,-43245],[-116850,-42327],[-114070,-43942]]],[[[-269406,2272],[-276747,1721],[-277402,-3678],[-269406,2272]]],[[[-105179,-81973],[-109980,-79311],[-109820,-87996],[-105179,-81973]]],[[[-109293,-53153],[-114805,-51332],[-117264,-54730],[-122085,-54926],[-127740,-58241],[-125339,-61470],[-120039,-63416],[-114381,-58508],[-107581,-55845],[-109293,-53153]]]]},"properties":{"region":"s","prov":"gyeonggi"}},
{"type":"Feature","geometry":{"type":"Polygon","coordinates":[[[-70786,118950],[-77486,118686],[-83081,123223],[-92475,127687],[-99251,126600],[-105663,130151],[-106884,124431],[-98771,110008],[-106423,108932],[-110690,111781],[-113826,108502],[-112670,104166],[-116375,102049],[-122455,104200],[-139719,111026],[-145436,107900],[-145229,101620],[-140935,98553],[-137895,93922],[-137304,88109],[-146501,80778],[-153210,80158],[-161377,84385],[-163467,89815],[-172129,94568],[-179148,95369],[-184309,93821],[-193262,88955],[-190360,82974],[-188805,75357],[-187393,71942],[-186232,61788],[-183171,54517],[-183603,49844],[-181471,45521],[-183122,42409],[-179226,38841],[-171963,36953],[-166396,28971],[-164909,22886],[-160275,20455],[-154284,22556],[-150704,21809],[-144347,23850],[-139494,27055],[-133708,27818],[-123618,23258],[-120745,19805],[-124146,15305],[-122816,-461],[-122960,-11392],[-119950,-15947],[-107774,-23978],[-101940,-21781],[-99668,-18500],[-99667,-6313],[-91169,-1822],[-83550,9529],[-77136,15300],[-75316,19674],[-81330,27022],[-81532,33011],[-88309,39892],[-95795,55867],[-94717,62449],[-97689,69129],[-95666,71921],[-87765,75463],[-81051,86665],[-80308,97964],[-78060,100431],[-72901,101064],[-69316,104077],[-67637,108742],[-70786,118950]]]},"properties":{"region":"n","prov":"hwbuk"}},
{"type":"Feature","geometry":{"type":"Polygon","coordinates":[[[89664,447905],[88495,444510],[83354,440574],[80309,435639],[75040,435363],[77193,424139],[81671,422950],[81281,413489],[83219,408694],[81271,403671],[87223,401359],[91522,397226],[93016,390959],[86815,383721],[85943,380107],[87939,372916],[94902,363447],[92692,355486],[95429,346355],[94348,343351],[97120,335274],[96718,330220],[94043,325107],[95994,319682],[94833,313063],[98721,307176],[100395,299556],[106736,293522],[106808,288442],[110741,285749],[115180,285500],[121095,301262],[124187,301565],[127048,297802],[131003,305831],[137283,309938],[143951,311261],[149373,316660],[161592,316347],[164478,324781],[162228,332369],[160502,348316],[164038,367306],[167258,375791],[161788,381519],[155279,386193],[155237,393001],[157453,406798],[161575,410700],[164163,419135],[168419,421348],[173115,426539],[173911,435458],[179563,434985],[180564,440015],[184446,445549],[188022,455173],[194410,454861],[198396,457995],[198415,466024],[205800,473293],[208959,468325],[213283,477252],[220831,485165],[228225,482680],[232278,478039],[239065,480801],[235902,483524],[235166,490468],[228268,497185],[224275,506477],[222858,514089],[217871,512351],[217752,508390],[214964,514385],[206960,519257],[199960,529395],[200659,543146],[199119,547030],[191054,547343],[189281,555599],[183289,553219],[177897,553614],[173927,558144],[169531,556658],[163371,538800],[160522,528665],[162747,521904],[159205,515630],[158550,498600],[156535,494834],[147342,495254],[147632,492401],[141333,488798],[134395,494232],[128547,494555],[124674,491965],[123777,488313],[118804,487018],[118811,482579],[116380,474572],[116467,469347],[109048,461388],[104415,459843],[101421,456000],[96253,454445],[94366,448517],[89664,447905]]]},"properties":{"region":"n","prov":"hbuk"}},
{"type":"Feature","geometry":{"type":"Polygon","coordinates":[[[-66543,416739],[-69664,410325],[-70062,396839],[-76308,390522],[-82241,389136],[-81214,383059],[-72744,383006],[-72166,376021],[-69788,366307],[-67005,363966],[-66958,359722],[-61719,349303],[-56905,346051],[-49974,344432],[-44027,350365],[-39697,352555],[-35464,351205],[-34298,340936],[-27347,339875],[-24762,341770],[-22517,349129],[-20311,350017],[-11626,347296],[-10528,344587],[-12212,333942],[-16909,332449],[-15599,327171],[-16751,321778],[-21969,317673],[-23653,313892],[-19850,311839],[-18496,306085],[-14174,298724],[-11270,296683],[-8091,287460],[-2407,286321],[-3293,279945],[-6573,273044],[-6543,267916],[-3509,266956],[9686,276251],[14609,284892],[21199,287257],[26956,284117],[31807,283293],[37327,290693],[42553,295608],[46716,307497],[49160,322861],[46994,332244],[48357,333859],[57091,333965],[62966,341155],[67791,343339],[69641,352404],[78720,352269],[88787,347987],[94348,343351],[95429,346355],[92692,355486],[94902,363447],[87939,372916],[85943,380107],[86815,383721],[93016,390959],[91522,397226],[87223,401359],[81271,403671],[83219,408694],[81281,413489],[81671,422950],[77193,424139],[75040,435363],[80309,435639],[83354,440574],[88495,444510],[89664,447905],[76215,449655],[73058,447195],[66876,447627],[63304,444332],[58172,443766],[50313,445066],[46671,447055],[38240,447713],[24890,443904],[19430,443293],[18266,440106],[19911,430620],[24667,424309],[29876,412028],[37541,406324],[41928,397831],[40669,393527],[32238,377913],[28942,374778],[22085,376097],[12042,385224],[6002,383317],[4083,380826],[-9167,381680],[-13507,380677],[-27200,388369],[-31111,386640],[-44311,389136],[-50018,393293],[-58001,392836],[-52833,399185],[-57160,400928],[-62814,407376],[-60208,408773],[-66543,416739]]]},"properties":{"region":"n","prov":"ryang"}},
{"type":"Feature","geometry":{"type":"Polygon","coordinates":[[[-176650,319426],[-181779,314150],[-179895,308726],[-189019,310750],[-191457,304532],[-196892,303687],[-201627,297123],[-195762,293501],[-191732,288634],[-186995,287630],[-185333,281911],[-188683,271358],[-184705,265812],[-185691,261789],[-182111,257632],[-169569,248667],[-161217,250025],[-155806,247923],[-141184,231428],[-135672,228094],[-127814,226999],[-122883,224872],[-116226,222309],[-107600,226350],[-104815,232548],[-90931,242456],[-84465,245422],[-83172,249380],[-77574,255071],[-75431,259475],[-74339,266870],[-69081,273994],[-69469,281217],[-61271,288158],[-53638,290251],[-48954,301815],[-38697,306808],[-35667,311095],[-36765,314697],[-41805,318723],[-42210,322568],[-40135,329484],[-35921,334138],[-34298,340936],[-35464,351205],[-39697,352555],[-44027,350365],[-49974,344432],[-56905,346051],[-61719,349303],[-66958,359722],[-67005,363966],[-69788,366307],[-72166,376021],[-72744,383006],[-81214,383059],[-82241,389136],[-76308,390522],[-70062,396839],[-69664,410325],[-66543,416739],[-75857,420484],[-77758,416324],[-82429,414440],[-84158,410693],[-89199,411348],[-94129,407621],[-98411,407546],[-102727,401857],[-101634,397520],[-104996,387991],[-108504,381977],[-106856,375652],[-113700,372508],[-118850,366198],[-129179,349972],[-138793,344501],[-139645,340598],[-145582,333206],[-150956,323311],[-157045,321005],[-159910,323500],[-166688,320367],[-171790,322252],[-176650,319426]]]},"properties":{"region":"n","prov":"jagang"}},
{"type":"Feature","geometry":{"type":"MultiPolygon","coordinates":[[[[-201627,297123],[-213321,296442],[-215196,293320],[-224018,290130],[-235021,284956],[-235190,276404],[-244366,277112],[-246185,279675],[-254549,270001],[-259702,267542],[-262375,260960],[-268376,259391],[-292397,238493],[-290778,232870],[-293074,220919],[-297330,218044],[-293999,213363],[-288023,208580],[-277762,206680],[-275040,200887],[-275578,196207],[-270621,190016],[-273724,185589],[-268245,184665],[-261349,190028],[-260434,198394],[-251482,194299],[-248640,188451],[-243780,188290],[-236304,181633],[-221104,179740],[-216101,171819],[-203587,177500],[-201704,176994],[-192146,179617],[-184569,183806],[-181260,183360],[-170316,189044],[-166033,195624],[-163276,196102],[-151657,207578],[-145439,203394],[-131790,206724],[-122353,211737],[-124683,219460],[-122883,224872],[-127814,226999],[-135672,228094],[-141184,231428],[-155806,247923],[-161217,250025],[-169569,248667],[-182111,257632],[-185691,261789],[-184705,265812],[-188683,271358],[-185333,281911],[-186995,287630],[-191732,288634],[-195762,293501],[-201627,297123]]],[[[-246688,182024],[-250634,183003],[-253007,178780],[-250707,173562],[-246291,175983],[-246688,182024]]]]},"properties":{"region":"n","prov":"pbuk"}},
{"type":"Feature","geometry":{"type":"MultiPolygon","coordinates":[[[[-124962,-170069],[-127196,-163430],[-128760,-153311],[-132870,-156308],[-130623,-172255],[-128772,-175281],[-123496,-175340],[-124962,-170069]]],[[[-74683,-121141],[-83763,-124999],[-79838,-130287],[-84840,-134035],[-86338,-129239],[-86041,-122100],[-89364,-115380],[-96607,-111164],[-104457,-110731],[-113893,-104029],[-114557,-108345],[-109797,-111253],[-110497,-116617],[-117597,-118002],[-122088,-109134],[-127791,-109818],[-126760,-116475],[-123349,-121158],[-126189,-126322],[-130561,-129394],[-133582,-125758],[-139930,-123877],[-142808,-129356],[-140888,-131772],[-148961,-135374],[-142609,-138327],[-142633,-142382],[-130896,-149423],[-131820,-143246],[-127695,-139683],[-128110,-151135],[-123041,-153703],[-117649,-149005],[-114459,-151649],[-118834,-154904],[-119021,-161126],[-116654,-174483],[-114158,-180100],[-109790,-180544],[-110292,-187269],[-113704,-196764],[-111384,-201015],[-114317,-204091],[-108926,-206680],[-99821,-221310],[-88987,-216168],[-84884,-211227],[-75501,-209759],[-66158,-206906],[-62842,-207592],[-63678,-212482],[-61782,-215470],[-41551,-210875],[-37535,-218164],[-33398,-219972],[-33131,-223237],[-27916,-223937],[-20636,-222619],[-16306,-218579],[-20174,-212145],[-21729,-201205],[-30049,-199232],[-29019,-188726],[-23415,-178557],[-28500,-180281],[-29568,-175345],[-35701,-175339],[-40081,-168636],[-39261,-161474],[-46067,-161011],[-52662,-162291],[-49473,-150066],[-41114,-136934],[-45197,-127692],[-48127,-124236],[-52332,-123644],[-59594,-118964],[-67020,-122064],[-74683,-121141]]]]},"properties":{"region":"s","prov":"chungnam"}},
{"type":"Feature","geometry":{"type":"Polygon","coordinates":[[[-66894,133931],[-74560,134920],[-76323,142640],[-82278,141780],[-85323,146272],[-90617,144695],[-94052,145828],[-94704,150869],[-91488,161534],[-92194,164961],[-96875,170307],[-93307,178076],[-93388,185345],[-90021,188890],[-92611,192391],[-86559,205132],[-79451,207450],[-73953,207395],[-67751,202944],[-60306,205973],[-58749,209500],[-61725,216326],[-63274,224384],[-60957,229467],[-54351,234955],[-54235,240194],[-58227,242945],[-59101,253785],[-63135,257805],[-67694,259605],[-75431,259475],[-77574,255071],[-83172,249380],[-84465,245422],[-90931,242456],[-104815,232548],[-107600,226350],[-116226,222309],[-122883,224872],[-124683,219460],[-122353,211737],[-131790,206724],[-145439,203394],[-151657,207578],[-163276,196102],[-166033,195624],[-170316,189044],[-181260,183360],[-184569,183806],[-192146,179617],[-201704,176994],[-206594,169403],[-211124,164843],[-208705,157324],[-203386,156347],[-205893,150691],[-204199,147008],[-207667,140998],[-217121,130873],[-216987,125560],[-225317,112633],[-229665,102258],[-231229,92528],[-227014,85194],[-220119,86829],[-220646,81606],[-216657,81424],[-211820,84326],[-205631,84408],[-197553,82445],[-192364,76254],[-188805,75357],[-190360,82974],[-193262,88955],[-184309,93821],[-179148,95369],[-172129,94568],[-163467,89815],[-161377,84385],[-153210,80158],[-146501,80778],[-137304,88109],[-137895,93922],[-140935,98553],[-145229,101620],[-145436,107900],[-139719,111026],[-122455,104200],[-116375,102049],[-112670,104166],[-113826,108502],[-110690,111781],[-106423,108932],[-98771,110008],[-106884,124431],[-105663,130151],[-99251,126600],[-92475,127687],[-83081,123223],[-77486,118686],[-70786,118950],[-67962,126085],[-64363,128014],[-66894,133931]]]},"properties":{"region":"n","prov":"pnam"}},
{"type":"Feature","geometry":{"type":"Polygon","coordinates":[[[-187393,71942],[-192692,73551],[-196138,77797],[-203238,81070],[-205103,78782],[-211411,79894],[-217446,75841],[-221011,77376],[-231807,72684],[-238870,66640],[-244059,69469],[-244331,63184],[-242294,60790],[-245632,53835],[-248945,53842],[-254813,43447],[-256166,32640],[-260845,24824],[-265131,23855],[-273785,17410],[-263615,15121],[-253779,17810],[-244461,10591],[-233195,14192],[-223795,12374],[-227992,8667],[-235515,8054],[-235790,-738],[-239272,1334],[-245515,-927],[-245010,-6768],[-238402,-10063],[-232379,-11402],[-227912,-10018],[-224987,-4721],[-219767,-8681],[-220374,-12592],[-217719,-17869],[-208828,-13319],[-210468,-8546],[-206943,-6218],[-201349,-9258],[-206321,-17069],[-210306,-18459],[-216003,-26242],[-212837,-28723],[-204919,-27279],[-202243,-22059],[-192007,-23800],[-192861,-19230],[-187367,-9048],[-182805,-3224],[-189658,-727],[-195055,3330],[-193350,5865],[-180274,2850],[-175281,655],[-167523,-13290],[-159638,-18108],[-153415,-12924],[-152933,-20521],[-150816,-20768],[-148872,-27402],[-144670,-28303],[-145292,-18447],[-142678,-16455],[-133764,-15413],[-126805,-11852],[-122960,-11392],[-122816,-461],[-124146,15305],[-120745,19805],[-123618,23258],[-133708,27818],[-139494,27055],[-144347,23850],[-150704,21809],[-154284,22556],[-160275,20455],[-164909,22886],[-166396,28971],[-171963,36953],[-179226,38841],[-183122,42409],[-181471,45521],[-183603,49844],[-183171,54517],[-186232,61788],[-187393,71942]]]},"properties":{"region":"n","prov":"hwnam"}},
{"type":"Feature","geometry":{"type":"Polygon","coordinates":[[[-88987,-216168],[-89895,-219084],[-95146,-222508],[-115282,-224381],[-107455,-228850],[-107196,-233391],[-96292,-234033],[-89632,-231431],[-89724,-236197],[-97509,-236494],[-99280,-239074],[-91177,-244528],[-102821,-244229],[-105805,-246137],[-108801,-252933],[-120637,-261017],[-121040,-265190],[-116600,-268031],[-103719,-266097],[-109300,-271941],[-118533,-273726],[-125486,-288198],[-123826,-290824],[-113068,-287903],[-110458,-288637],[-111822,-298672],[-109567,-299459],[-100905,-297388],[-95294,-294586],[-91522,-287595],[-91566,-284594],[-84666,-281134],[-78681,-284243],[-74470,-290034],[-71662,-290022],[-69277,-284997],[-64792,-287664],[-65623,-290856],[-61223,-301021],[-48985,-299204],[-46064,-301185],[-33551,-300441],[-27588,-295787],[-21779,-297898],[-16601,-302078],[-13948,-294435],[-10148,-289918],[-13169,-275833],[-15492,-274849],[-8450,-251274],[-2728,-243752],[6103,-240254],[10278,-234387],[10689,-227322],[6993,-221047],[2048,-221351],[-4176,-224614],[-16306,-218579],[-20636,-222619],[-27916,-223937],[-33131,-223237],[-33398,-219972],[-37535,-218164],[-41551,-210875],[-61782,-215470],[-63678,-212482],[-62842,-207592],[-66158,-206906],[-75501,-209759],[-84884,-211227],[-88987,-216168]]]},"properties":{"region":"s","prov":"jeonbuk"}},
{"type":"Feature","geometry":{"type":"MultiPolygon","coordinates":[[[[-123826,-290824],[-126144,-290870],[-130831,-301989],[-130784,-310981],[-126281,-318619],[-122824,-320820],[-123068,-324554],[-131132,-323254],[-134137,-318182],[-137646,-316269],[-140549,-319836],[-134861,-322531],[-130092,-329976],[-135734,-334263],[-132874,-339966],[-128041,-337255],[-127150,-349138],[-129548,-355554],[-122937,-354047],[-116760,-354882],[-113961,-343629],[-111341,-343404],[-111957,-351854],[-117040,-359364],[-122596,-356489],[-131439,-359650],[-118267,-363230],[-114035,-369381],[-119108,-371280],[-123420,-368434],[-123827,-364556],[-130163,-363881],[-138186,-359432],[-140126,-371355],[-135306,-379506],[-130231,-380771],[-129314,-383564],[-122418,-382899],[-120231,-386484],[-121663,-394824],[-118191,-395898],[-121441,-404192],[-117050,-405074],[-116624,-410531],[-109912,-407344],[-107587,-399880],[-99456,-395246],[-95365,-390036],[-95850,-381325],[-91024,-381875],[-90956,-393180],[-84079,-396589],[-82224,-392435],[-73944,-383412],[-72404,-375460],[-64224,-370864],[-59715,-366792],[-53691,-365268],[-50509,-358522],[-46624,-363551],[-42881,-361376],[-40488,-366148],[-49406,-373676],[-50747,-378794],[-61494,-380927],[-61141,-385099],[-52897,-382875],[-44469,-394221],[-43363,-391008],[-37473,-387612],[-38498,-382914],[-41860,-379453],[-37401,-376827],[-31897,-379871],[-27434,-375739],[-30589,-370184],[-36083,-365967],[-37955,-359286],[-32492,-351659],[-28588,-350304],[-26409,-345519],[-19727,-360891],[-22358,-367725],[-20869,-371849],[-14183,-374203],[-14841,-366225],[-13159,-362563],[-8571,-364274],[-4591,-361922],[-2331,-351698],[-9146,-350259],[-13124,-353620],[-16558,-350898],[-20427,-344180],[-17607,-339263],[-14515,-343948],[-5077,-337185],[456,-337524],[-992,-331963],[-6674,-325791],[-8441,-321400],[-13942,-315433],[-14319,-309538],[-16601,-302078],[-21779,-297898],[-27588,-295787],[-33551,-300441],[-46064,-301185],[-48985,-299204],[-61223,-301021],[-65623,-290856],[-64792,-287664],[-69277,-284997],[-71662,-290022],[-74470,-290034],[-78681,-284243],[-84666,-281134],[-91566,-284594],[-91522,-287595],[-95294,-294586],[-100905,-297388],[-109567,-299459],[-111822,-298672],[-110458,-288637],[-113068,-287903],[-123826,-290824]]],[[[-57570,-389846],[-60578,-390382],[-62716,-394929],[-57989,-397162],[-52492,-395805],[-51953,-390258],[-57570,-389846]]],[[[-130363,-387476],[-133027,-383033],[-139996,-383030],[-141895,-385542],[-147227,-386745],[-149514,-390907],[-154747,-394008],[-154022,-397649],[-146222,-402731],[-137395,-398107],[-133643,-397350],[-130363,-387476]]],[[[-1642,-367752],[-5327,-372290],[-2256,-378906],[1579,-373717],[-1642,-367752]]],[[[-165839,-363070],[-171935,-364949],[-167063,-369363],[-165839,-363070]]],[[[-159318,-340961],[-164843,-345034],[-159543,-346997],[-156108,-342871],[-159318,-340961]]],[[[-154072,-325792],[-150897,-322374],[-152376,-318124],[-157759,-320050],[-159032,-324578],[-154072,-325792]]],[[[-148855,-361198],[-155087,-356797],[-155269,-362292],[-148855,-361198]]],[[[-157350,-351089],[-151600,-350048],[-151501,-344922],[-158421,-347978],[-157350,-351089]]],[[[-110696,-424308],[-118422,-424191],[-116477,-428918],[-110696,-424308]]],[[[-95333,-408885],[-99120,-400854],[-105372,-399242],[-106253,-405676],[-102240,-409715],[-98321,-411057],[-95333,-408885]]],[[[-95384,-400708],[-88860,-399220],[-88615,-394665],[-93495,-395871],[-95384,-400708]]]]},"properties":{"region":"s","prov":"jeonnam"}},
{"type":"Feature","geometry":{"type":"MultiPolygon","coordinates":[[[[-16601,-302078],[-14319,-309538],[-13942,-315433],[-8441,-321400],[-6674,-325791],[-992,-331963],[456,-337524],[8328,-338681],[20012,-332896],[23134,-325299],[24109,-340733],[29114,-341558],[31013,-344706],[37193,-344818],[38732,-339577],[45883,-342856],[49428,-346755],[58084,-349980],[58466,-336449],[63833,-331526],[61211,-326995],[52140,-331871],[53731,-327177],[60423,-324590],[61805,-321576],[66200,-321057],[75387,-322393],[74895,-315010],[82072,-321740],[88607,-323101],[101958,-323120],[105935,-317361],[104881,-324081],[109133,-323719],[115161,-318640],[120624,-320787],[120260,-315382],[127436,-313728],[132440,-304412],[133522,-296769],[141784,-292442],[141368,-281551],[147693,-278461],[150043,-274593],[150265,-263768],[142986,-262160],[134585,-263808],[130757,-258166],[124470,-256244],[117536,-258144],[115921,-263511],[109496,-267832],[100791,-266665],[89735,-273524],[80539,-271126],[73868,-272158],[68708,-267629],[63624,-266322],[56306,-268352],[48936,-264968],[38001,-264735],[36557,-259617],[37677,-254494],[29305,-244707],[21812,-243766],[14953,-241015],[10278,-234387],[6103,-240254],[-2728,-243752],[-8450,-251274],[-15492,-274849],[-13169,-275833],[-10148,-289918],[-13948,-294435],[-16601,-302078]]],[[[24656,-353253],[20948,-352514],[14811,-354168],[9652,-347298],[12628,-342304],[9325,-339420],[2683,-347303],[2774,-351228],[6227,-363613],[9730,-364584],[14104,-359408],[16052,-366033],[23816,-365078],[24656,-353253]]],[[[86696,-346893],[83564,-346096],[85332,-339532],[81581,-333929],[75216,-337612],[75562,-344464],[71620,-342483],[67268,-343202],[62923,-347087],[66661,-353811],[73560,-350726],[70795,-359837],[74909,-362900],[78456,-359386],[81072,-353696],[86696,-346893]]],[[[24937,-349913],[23662,-346009],[18449,-342398],[15579,-346600],[18451,-350867],[24937,-349913]]],[[[53575,-352563],[55507,-358875],[58313,-357005],[58346,-352595],[53575,-352563]]]]},"properties":{"region":"s","prov":"gyeongnam"}},
{"type":"Feature","geometry":{"type":"MultiPolygon","coordinates":[[[[75632,-108135],[72299,-109681],[59244,-120672],[55266,-127650],[55797,-134170],[48345,-137346],[39047,-129502],[35912,-135682],[29135,-133615],[22945,-135789],[20166,-142320],[23187,-147001],[13441,-144546],[11506,-147432],[5607,-150797],[4934,-154283],[-2,-161750],[3505,-162343],[7896,-168688],[5380,-172812],[4486,-181522],[6046,-185184],[2773,-189453],[3314,-194723],[6925,-193873],[13393,-197516],[20017,-197902],[21053,-203683],[14809,-205040],[15145,-211365],[11443,-219217],[6993,-221047],[10689,-227322],[10278,-234387],[14953,-241015],[21812,-243766],[29305,-244707],[37677,-254494],[36557,-259617],[38001,-264735],[48936,-264968],[56306,-268352],[63624,-266322],[68708,-267629],[73868,-272158],[80539,-271126],[89735,-273524],[100791,-266665],[109496,-267832],[115921,-263511],[117536,-258144],[124470,-256244],[130757,-258166],[134585,-263808],[142986,-262160],[150265,-263768],[148768,-260985],[153498,-248502],[153297,-244377],[155523,-237739],[156552,-227236],[161054,-218513],[156931,-213152],[151314,-219499],[147196,-221065],[142410,-216109],[145762,-212559],[144255,-202082],[142253,-198318],[142414,-184905],[147134,-175367],[147526,-165887],[145101,-152242],[138363,-152897],[132135,-150716],[133083,-148061],[131652,-139754],[133713,-133982],[132543,-129929],[126000,-129541],[122008,-127637],[120453,-123256],[115625,-119171],[115787,-112822],[122735,-107850],[116883,-105556],[112165,-107480],[96186,-103626],[89211,-100168],[85210,-103305],[85066,-110955],[75632,-108135]]],[[[274192,-45860],[267942,-47587],[266225,-52656],[269966,-55596],[273891,-55061],[275726,-49769],[274192,-45860]]]]},"properties":{"region":"s","prov":"gyeongbuk"}},
{"type":"Feature","geometry":{"type":"Polygon","coordinates":[[[-31160,155988],[-27287,159505],[-20423,149134],[-24033,167648],[-19357,177021],[-21217,181659],[-24690,183079],[-25573,188519],[-23916,193897],[-15082,203193],[-11702,200508],[-8918,205099],[-3213,205687],[-1554,209223],[6378,210048],[7775,217643],[11124,218833],[16880,224227],[17645,226974],[31090,224000],[37063,225292],[39515,230603],[42838,225774],[48140,232849],[52115,232819],[60502,237218],[67132,242960],[73582,244637],[72855,250835],[69415,252390],[72670,257831],[90035,263755],[99691,273656],[108298,275178],[115180,285500],[110741,285749],[106808,288442],[106736,293522],[100395,299556],[98721,307176],[94833,313063],[95994,319682],[94043,325107],[96718,330220],[97120,335274],[94348,343351],[88787,347987],[78720,352269],[69641,352404],[67791,343339],[62966,341155],[57091,333965],[48357,333859],[46994,332244],[49160,322861],[46716,307497],[42553,295608],[37327,290693],[31807,283293],[26956,284117],[21199,287257],[14609,284892],[9686,276251],[-3509,266956],[-6543,267916],[-6573,273044],[-3293,279945],[-2407,286321],[-8091,287460],[-11270,296683],[-14174,298724],[-18496,306085],[-19850,311839],[-23653,313892],[-21969,317673],[-16751,321778],[-15599,327171],[-16909,332449],[-12212,333942],[-10528,344587],[-11626,347296],[-20311,350017],[-22517,349129],[-24762,341770],[-27347,339875],[-34298,340936],[-35921,334138],[-40135,329484],[-42210,322568],[-41805,318723],[-36765,314697],[-35667,311095],[-38697,306808],[-48954,301815],[-53638,290251],[-61271,288158],[-69469,281217],[-69081,273994],[-74339,266870],[-75431,259475],[-67694,259605],[-63135,257805],[-59101,253785],[-58227,242945],[-54235,240194],[-54351,234955],[-60957,229467],[-63274,224384],[-61725,216326],[-58749,209500],[-60306,205973],[-67751,202944],[-73953,207395],[-79451,207450],[-86559,205132],[-92611,192391],[-90021,188890],[-93388,185345],[-93307,178076],[-96875,170307],[-92194,164961],[-91488,161534],[-94704,150869],[-94052,145828],[-90617,144695],[-85323,146272],[-82278,141780],[-76323,142640],[-74560,134920],[-66894,133931],[-65805,141400],[-61591,143259],[-59761,152802],[-57628,155966],[-47575,157040],[-31160,155988]]]},"properties":{"region":"n","prov":"hnam"}},
{"type":"Feature","geometry":{"type":"Polygon","coordinates":[[[-79340,-501207],[-83747,-496627],[-93528,-491568],[-105396,-493011],[-113059,-495185],[-122125,-496020],[-124525,-498028],[-138409,-502042],[-144996,-509899],[-148257,-511758],[-152582,-519986],[-151682,-523484],[-141104,-531292],[-136638,-527165],[-127782,-527159],[-123874,-528385],[-111152,-527219],[-107973,-524587],[-98542,-522964],[-94943,-520190],[-89311,-519727],[-86182,-512788],[-80019,-506431],[-79340,-501207]]]},"properties":{"region":"s","prov":"jeju"}},
{"type":"Feature","geometry":{"type":"Polygon","coordinates":[[[-17141,-96354],[-25111,-109322],[-29590,-109829],[-37360,-120312],[-48127,-124236],[-45197,-127692],[-41114,-136934],[-49473,-150066],[-52662,-162291],[-46067,-161011],[-39261,-161474],[-40081,-168636],[-35701,-175339],[-29568,-175345],[-28500,-180281],[-23415,-178557],[-29019,-188726],[-30049,-199232],[-21729,-201205],[-20174,-212145],[-16306,-218579],[-4176,-224614],[2048,-221351],[6993,-221047],[11443,-219217],[15145,-211365],[14809,-205040],[21053,-203683],[20017,-197902],[13393,-197516],[6925,-193873],[3314,-194723],[2773,-189453],[6046,-185184],[4486,-181522],[5380,-172812],[7896,-168688],[3505,-162343],[-2,-161750],[4934,-154283],[5607,-150797],[11506,-147432],[13441,-144546],[23187,-147001],[20166,-142320],[22945,-135789],[29135,-133615],[35912,-135682],[39047,-129502],[48345,-137346],[55797,-134170],[55266,-127650],[59244,-120672],[72299,-109681],[75632,-108135],[67447,-105558],[62967,-102483],[55183,-103692],[52014,-97876],[44283,-99680],[41253,-97890],[46331,-91354],[34703,-88374],[21135,-94186],[16641,-86712],[10447,-90299],[10940,-95691],[7858,-98248],[926,-97876],[1687,-92522],[-7756,-93805],[-17141,-96354]]]},"properties":{"region":"s","prov":"chungbuk"}}
]}